ONEWEB-0229             
1 48779U 21045N   24327.18669648  .00000102  00000+0  23606-3 0  9995
2 48779  87.9090  13.0682 0001920  91.5752 268.5599 13.15546286170330
ONEWEB-0228             
1 48780U 21045P   24327.14311619  .00000051  00000+0  10127-3 0  9992
2 48780  87.9091  13.0564 0001882  93.1359 266.9986 13.15546313170243
ONEWEB-0232             
1 48781U 21045Q   24327.11854987  .00000167  00000+0  40914-3 0  9995
2 48781  87.9080  13.0676 0001844  95.6961 264.4380 13.15551167170558
ONEWEB-0231             
1 48782U 21045R   24327.09637983  .00000015  00000+0  66211-5 0  9990
2 48782  87.9096  13.1251 0001868  85.4512 274.6832 13.15546757170263
ONEWEB-0234             
1 48783U 21045S   24327.11618840  .00000172  00000+0  42271-3 0  9997
2 48783  87.9088  13.0689 0001192 136.6542 223.4682 13.15547106170399
ONEWEB-0238             
1 48784U 21045T   24327.14628126  .00000029  00000+0  44132-4 0  9999
2 48784  87.9091  13.0797 0001764 102.3111 257.8217 13.15548230170294
ONEWEB-0240             
1 48785U 21045U   24327.07973161 -.00000036  00000+0 -12921-3 0  9994
2 48785  87.9090  13.0595 0001618  81.8890 278.2424 13.15545321170300
ONEWEB-0246             
1 48786U 21045V   24327.15024780 -.00000037  00000+0 -13129-3 0  9990
2 48786  87.9093  13.0527 0001968  92.6710 267.4646 13.15546361170185
